[{"OBJECT_NAME":"ONEWEB-0083","OBJECT_ID":"2020-020M","EPOCH":"2026-05-25T02:09:31.033728","MEAN_MOTION":13.11417448,"ECCENTRICITY":0.0001731,"INCLINATION":87.8919,"RA_OF_ASC_NODE":25.6538,"ARG_OF_PERICENTER":79.9393,"MEAN_ANOMALY":280.193,"EPHEMERIS_TYPE":0,"CLASSIFICATION_TYPE":"U","NORAD_CAT_ID":45435,"ELEMENT_SET_NO":999,"REV_AT_EPOCH":29964,"BSTAR":-0.00097166,"MEAN_MOTION_DOT":-3.32e-06,"MEAN_MOTION_DDOT":0.0},{"OBJECT_NAME":"ONEWEB-0095","OBJECT_ID":"2020-020N","EPOCH":"2026-05-25T01:57:18.808416","MEAN_MOTION":13.11418068,"ECCENTRICITY":0.0002033,"INCLINATION":87.8918,"RA_OF_ASC_NODE":25.664,"ARG_OF_PERICENTER":104.8339,"MEAN_ANOMALY":255.3014,"EPHEMERIS_TYPE":0,"CLASSIFICATION_TYPE":"U","NORAD_CAT_ID":45436,"ELEMENT_SET_NO":999,"REV_AT_EPOCH":29964,"BSTAR":-0.0014112,"MEAN_MOTION_DOT":-4.87e-06,"MEAN_MOTION_DDOT":0.0},{"OBJECT_NAME":"ONEWEB-0092","OBJECT_ID":"2020-020P","EPOCH":"2026-05-25T02:51:36.821952","MEAN_MOTION":13.11954068,"ECCENTRICITY":0.0001986,"INCLINATION":87.8916,"RA_OF_ASC_NODE":25.6517,"ARG_OF_PERICENTER":89.258,"MEAN_ANOMALY":270.8776,"EPHEMERIS_TYPE":0,"CLASSIFICATION_TYPE":"U","NORAD_CAT_ID":45437,"ELEMENT_SET_NO":999,"REV_AT_EPOCH":29976,"BSTAR":0.0014584,"MEAN_MOTION_DOT":5.34e-06,"MEAN_MOTION_DDOT":0.0},{"OBJECT_NAME":"ONEWEB-0085","OBJECT_ID":"2020-020Q","EPOCH":"2026-05-25T02:09:07.728192","MEAN_MOTION":13.11417567,"ECCENTRICITY":0.0001789,"INCLINATION":87.8909,"RA_OF_ASC_NODE":25.6624,"ARG_OF_PERICENTER":81.8581,"MEAN_ANOMALY":278.2749,"EPHEMERIS_TYPE":0,"CLASSIFICATION_TYPE":"U","NORAD_CAT_ID":45438,"ELEMENT_SET_NO":999,"REV_AT_EPOCH":29964,"BSTAR":-0.0010237,"MEAN_MOTION_DOT":-3.5e-06,"MEAN_MOTION_DDOT":0.0},{"OBJECT_NAME":"ONEWEB-0096","OBJECT_ID":"2020-020R","EPOCH":"2026-05-25T02:11:46.798368","MEAN_MOTION":13.11418335,"ECCENTRICITY":0.0001872,"INCLINATION":87.8921,"RA_OF_ASC_NODE":25.656,"ARG_OF_PERICENTER":81.6291,"MEAN_ANOMALY":278.5049,"EPHEMERIS_TYPE":0,"CLASSIFICATION_TYPE":"U","NORAD_CAT_ID":45439,"ELEMENT_SET_NO":999,"REV_AT_EPOCH":29963,"BSTAR":-0.00082831,"MEAN_MOTION_DOT":-2.81e-06,"MEAN_MOTION_DDOT":0.0},{"OBJECT_NAME":"ONEWEB-0037","OBJECT_ID":"2020-020S","EPOCH":"2026-05-25T03:12:14.721408","MEAN_MOTION":13.11909388,"ECCENTRICITY":0.0001828,"INCLINATION":87.8926,"RA_OF_ASC_NODE":25.6229,"ARG_OF_PERICENTER":84.3194,"MEAN_ANOMALY":275.8143,"EPHEMERIS_TYPE":0,"CLASSIFICATION_TYPE":"U","NORAD_CAT_ID":45440,"ELEMENT_SET_NO":999,"REV_AT_EPOCH":29967,"BSTAR":0.00019991,"MEAN_MOTION_DOT":8.4e-07,"MEAN_MOTION_DDOT":0.0},{"OBJECT_NAME":"ONEWEB-0042","OBJECT_ID":"2020-020T","EPOCH":"2026-05-25T01:56:54.808224","MEAN_MOTION":13.11416774,"ECCENTRICITY":0.0001896,"INCLINATION":87.8917,"RA_OF_ASC_NODE":25.6543,"ARG_OF_PERICENTER":80.8245,"MEAN_ANOMALY":279.3098,"EPHEMERIS_TYPE":0,"CLASSIFICATION_TYPE":"U","NORAD_CAT_ID":45441,"ELEMENT_SET_NO":999,"REV_AT_EPOCH":29963,"BSTAR":-0.0014798,"MEAN_MOTION_DOT":-5.12e-06,"MEAN_MOTION_DDOT":0.0},{"OBJECT_NAME":"ONEWEB-0098","OBJECT_ID":"2020-020U","EPOCH":"2026-05-25T01:51:00.000576","MEAN_MOTION":13.11415282,"ECCENTRICITY":0.000171,"INCLINATION":87.8913,"RA_OF_ASC_NODE":25.6651,"ARG_OF_PERICENTER":80.7556,"MEAN_ANOMALY":279.3765,"EPHEMERIS_TYPE":0,"CLASSIFICATION_TYPE":"U","NORAD_CAT_ID":45442,"ELEMENT_SET_NO":999,"REV_AT_EPOCH":29961,"BSTAR":-0.0014632999999999998,"MEAN_MOTION_DOT":-5.06e-06,"MEAN_MOTION_DDOT":0.0},{"OBJECT_NAME":"ONEWEB-0055","OBJECT_ID":"2020-020V","EPOCH":"2026-05-25T03:10:09.206400","MEAN_MOTION":13.11412783,"ECCENTRICITY":0.0001692,"INCLINATION":87.8914,"RA_OF_ASC_NODE":25.6527,"ARG_OF_PERICENTER":80.7807,"MEAN_ANOMALY":279.3512,"EPHEMERIS_TYPE":0,"CLASSIFICATION_TYPE":"U","NORAD_CAT_ID":45443,"ELEMENT_SET_NO":999,"REV_AT_EPOCH":29959,"BSTAR":0.0006605900000000001,"MEAN_MOTION_DOT":2.47e-06,"MEAN_MOTION_DDOT":0.0},{"OBJECT_NAME":"ONEWEB-0093","OBJECT_ID":"2020-020W","EPOCH":"2026-05-25T02:41:17.142144","MEAN_MOTION":13.11418477,"ECCENTRICITY":0.0002168,"INCLINATION":87.8918,"RA_OF_ASC_NODE":25.6493,"ARG_OF_PERICENTER":78.1559,"MEAN_ANOMALY":281.9812,"EPHEMERIS_TYPE":0,"CLASSIFICATION_TYPE":"U","NORAD_CAT_ID":45444,"ELEMENT_SET_NO":999,"REV_AT_EPOCH":29965,"BSTAR":0.0012919000000000001,"MEAN_MOTION_DOT":4.71e-06,"MEAN_MOTION_DDOT":0.0},{"OBJECT_NAME":"ONEWEB-0029","OBJECT_ID":"2020-020X","EPOCH":"2026-05-25T03:18:36.966240","MEAN_MOTION":13.10885914,"ECCENTRICITY":0.0001951,"INCLINATION":87.8903,"RA_OF_ASC_NODE":25.6553,"ARG_OF_PERICENTER":79.4672,"MEAN_ANOMALY":280.6676,"EPHEMERIS_TYPE":0,"CLASSIFICATION_TYPE":"U","NORAD_CAT_ID":45445,"ELEMENT_SET_NO":999,"REV_AT_EPOCH":29963,"BSTAR":-0.00017898,"MEAN_MOTION_DOT":-5e-07,"MEAN_MOTION_DDOT":0.0},{"OBJECT_NAME":"ONEWEB-0068","OBJECT_ID":"2020-020Y","EPOCH":"2026-05-25T02:40:52.925088","MEAN_MOTION":13.11417238,"ECCENTRICITY":0.0001929,"INCLINATION":87.8919,"RA_OF_ASC_NODE":25.6529,"ARG_OF_PERICENTER":76.9941,"MEAN_ANOMALY":283.1402,"EPHEMERIS_TYPE":0,"CLASSIFICATION_TYPE":"U","NORAD_CAT_ID":45446,"ELEMENT_SET_NO":999,"REV_AT_EPOCH":29957,"BSTAR":0.0013703,"MEAN_MOTION_DOT":4.98e-06,"MEAN_MOTION_DDOT":0.0},{"OBJECT_NAME":"ONEWEB-0046","OBJECT_ID":"2020-020Z","EPOCH":"2026-05-25T02:28:52.036320","MEAN_MOTION":13.11418383,"ECCENTRICITY":0.0002066,"INCLINATION":87.8917,"RA_OF_ASC_NODE":25.6619,"ARG_OF_PERICENTER":83.0841,"MEAN_ANOMALY":277.0522,"EPHEMERIS_TYPE":0,"CLASSIFICATION_TYPE":"U","NORAD_CAT_ID":45447,"ELEMENT_SET_NO":999,"REV_AT_EPOCH":29958,"BSTAR":0.00075131,"MEAN_MOTION_DOT":2.79e-06,"MEAN_MOTION_DDOT":0.0},{"OBJECT_NAME":"ONEWEB-0063","OBJECT_ID":"2020-020AA","EPOCH":"2026-05-25T03:10:33.748320","MEAN_MOTION":13.11413886,"ECCENTRICITY":0.0001945,"INCLINATION":87.8917,"RA_OF_ASC_NODE":25.6536,"ARG_OF_PERICENTER":90.6683,"MEAN_ANOMALY":269.4667,"EPHEMERIS_TYPE":0,"CLASSIFICATION_TYPE":"U","NORAD_CAT_ID":45448,"ELEMENT_SET_NO":999,"REV_AT_EPOCH":29967,"BSTAR":0.00044272,"MEAN_MOTION_DOT":1.7e-06,"MEAN_MOTION_DDOT":0.0},{"OBJECT_NAME":"ONEWEB-0019","OBJECT_ID":"2020-020AB","EPOCH":"2026-05-25T02:16:26.918400","MEAN_MOTION":13.11417711,"ECCENTRICITY":0.000165,"INCLINATION":87.8914,"RA_OF_ASC_NODE":25.6491,"ARG_OF_PERICENTER":80.8202,"MEAN_ANOMALY":279.3113,"EPHEMERIS_TYPE":0,"CLASSIFICATION_TYPE":"U","NORAD_CAT_ID":45449,"ELEMENT_SET_NO":999,"REV_AT_EPOCH":29951,"BSTAR":-0.00033317000000000004,"MEAN_MOTION_DOT":-1.05e-06,"MEAN_MOTION_DDOT":0.0},{"OBJECT_NAME":"ONEWEB-0094","OBJECT_ID":"2020-020AC","EPOCH":"2026-05-25T02:50:24.398016","MEAN_MOTION":13.17649745,"ECCENTRICITY":0.0001787,"INCLINATION":87.9162,"RA_OF_ASC_NODE":10.4347,"ARG_OF_PERICENTER":77.1771,"MEAN_ANOMALY":282.956,"EPHEMERIS_TYPE":0,"CLASSIFICATION_TYPE":"U","NORAD_CAT_ID":45450,"ELEMENT_SET_NO":999,"REV_AT_EPOCH":30327,"BSTAR":-6.4948e-06,"MEAN_MOTION_DOT":1e-07,"MEAN_MOTION_DDOT":0.0}]