ONEWEB-0083             
1 45435U 20020M   26145.08994252 -.00000332  00000+0 -97166-3 0  9993
2 45435  87.8919  25.6538 0001731  79.9393 280.1930 13.11417448299643
ONEWEB-0095             
1 45436U 20020N   26145.08146769 -.00000487  00000+0 -14112-2 0  9996
2 45436  87.8918  25.6640 0002033 104.8339 255.3014 13.11418068299647
ONEWEB-0092             
1 45437U 20020P   26145.11917618  .00000534  00000+0  14584-2 0  9994
2 45437  87.8916  25.6517 0001986  89.2580 270.8776 13.11954068299764
ONEWEB-0085             
1 45438U 20020Q   26145.08967278 -.00000350  00000+0 -10237-2 0  9997
2 45438  87.8909  25.6624 0001789  81.8581 278.2749 13.11417567299643
ONEWEB-0096             
1 45439U 20020R   26145.09151387 -.00000281  00000+0 -82831-3 0  9998
2 45439  87.8921  25.6560 0001872  81.6291 278.5049 13.11418335299635
ONEWEB-0037             
1 45440U 20020S   26145.13350372  .00000084  00000+0  19991-3 0  9996
2 45440  87.8926  25.6229 0001828  84.3194 275.8143 13.11909388299679
ONEWEB-0042             
1 45441U 20020T   26145.08118991 -.00000512  00000+0 -14798-2 0  9997
2 45441  87.8917  25.6543 0001896  80.8245 279.3098 13.11416774299638
ONEWEB-0098             
1 45442U 20020U   26145.07708334 -.00000506  00000+0 -14633-2 0  9994
2 45442  87.8913  25.6651 0001710  80.7556 279.3765 13.11415282299616
ONEWEB-0055             
1 45443U 20020V   26145.13205100  .00000247  00000+0  66059-3 0  9995
2 45443  87.8914  25.6527 0001692  80.7807 279.3512 13.11412783299598
ONEWEB-0093             
1 45444U 20020W   26145.11200396  .00000471  00000+0  12919-2 0  9990
2 45444  87.8918  25.6493 0002168  78.1559 281.9812 13.11418477299654
ONEWEB-0029             
1 45445U 20020X   26145.13792785 -.00000050  00000+0 -17898-3 0  9998
2 45445  87.8903  25.6553 0001951  79.4672 280.6676 13.10885914299630
ONEWEB-0068             
1 45446U 20020Y   26145.11172367  .00000498  00000+0  13703-2 0  9999
2 45446  87.8919  25.6529 0001929  76.9941 283.1402 13.11417238299576
ONEWEB-0046             
1 45447U 20020Z   26145.10338005  .00000279  00000+0  75131-3 0  9993
2 45447  87.8917  25.6619 0002066  83.0841 277.0522 13.11418383299584
ONEWEB-0063             
1 45448U 20020AA  26145.13233505  .00000170  00000+0  44272-3 0  9998
2 45448  87.8917  25.6536 0001945  90.6683 269.4667 13.11413886299674
ONEWEB-0019             
1 45449U 20020AB  26145.09475600 -.00000105  00000+0 -33317-3 0  9996
2 45449  87.8914  25.6491 0001650  80.8202 279.3113 13.11417711299513
ONEWEB-0094             
1 45450U 20020AC  26145.11833794  .00000010  00000+0 -64948-5 0  9993
2 45450  87.9162  10.4347 0001787  77.1771 282.9560 13.17649745303279
